ONEWEB-0533             
1 55141U 23004B   23327.65591491 -.00014668  00000+0 -40812-1 0  9994
2 55141  87.9084 176.8678 0001605  91.8157 268.3155 13.12542926 45217
ONEWEB-0541             
1 55142U 23004C   23327.18299404 -.00000044  00000+0 -16041-3 0  9994
2 55142  87.8990 207.2385 0001732  76.6990 283.4331 13.11419126 43131
ONEWEB-0543             
1 55143U 23004D   23327.64167006  .00000093  00000+0  16488-3 0  9995
2 55143  87.9729 161.8978 0000310  47.4494 312.6672 13.32023036 46255
ONEWEB-0544             
1 55144U 23004E   23327.60754730  .00000035  00000+0  45449-4 0  9994
2 55144  87.9694 161.8883 0001136 105.6198 254.5067 13.31826317 46251
ONEWEB-0560             
1 55145U 23004F   23327.60512741  .00000056  00000+0  88555-4 0  9997
2 55145  87.9694 161.7952 0000151 356.4931   3.6208 13.32138264 46264
ONEWEB-0565             
1 55146U 23004G   23327.57604927  .00000079  00000+0  13631-3 0  9999
2 55146  87.9698 161.9133 0002217 109.8177 250.3201 13.31823085 46253
ONEWEB-0567             
1 55147U 23004H   23327.54131350  .00000134  00000+0  24989-3 0  9992
2 55147  87.9715 161.8777 0001400 110.1997 249.9293 13.31985539 46242
ONEWEB-0569             
1 55148U 23004J   23327.58334491 -.01305878  00000+0 -31370+0 0  9992
2 55148  86.6266 151.9033 0001460 181.5178  17.2748 14.56993116  5697
